OBJECT_NAME,OBJECT_ID,EPOCH,MEAN_MOTION,ECCENTRICITY,INCLINATION,RA_OF_ASC_NODE,ARG_OF_PERICENTER,MEAN_ANOMALY,EPHEMERIS_TYPE,CLASSIFICATION_TYPE,NORAD_CAT_ID,ELEMENT_SET_NO,REV_AT_EPOCH,BSTAR,MEAN_MOTION_DOT,MEAN_MOTION_DDOT
STARLINK-38005,2026-145A,2026-07-14T12:59:39.568416,15.75225127,.00015549,97.2832,42.3433,96.4427,263.7016,0,U,69677,999,307,.62172269E-3,.93772E-3,0
STARLINK-38009,2026-145B,2026-07-14T12:57:07.251264,15.75189602,.00014462,97.2831,42.3464,54.8458,305.2942,0,U,69678,999,307,.36062453E-3,.54E-3,0
STARLINK-37998,2026-145C,2026-07-14T02:12:35.786304,15.80162191,.00256497,97.2835,41.8847,306.1797,53.7099,0,U,69679,999,300,.25096329E-1,.5837906E-1,0
STARLINK-37994,2026-145D,2026-07-14T12:55:35.804640,15.75224890,.00011118,97.2830,42.3478,71.4534,288.6852,0,U,69680,999,307,.70685964E-3,.10679E-2,0
STARLINK-37992,2026-145E,2026-07-14T12:55:05.169792,15.75232997,.00019732,97.2814,42.3476,104.0695,256.0790,0,U,69681,999,307,.6024206E-3,.90859E-3,0
STARLINK-37997,2026-145F,2026-07-14T12:54:04.364064,15.75287775,.00008787,97.2831,42.3494,98.7726,261.3638,0,U,69682,999,307,.14723071E-2,.22635E-2,0
STARLINK-37990,2026-145G,2026-07-14T12:54:34.850304,15.75226430,.00010186,97.2833,42.3482,70.2318,289.9057,0,U,69683,999,307,.67638847E-3,.102132E-2,0
STARLINK-37951,2026-145H,2026-07-14T11:22:03.048960,15.74490714,.00048311,97.2837,42.2821,17.6100,342.5332,0,U,69684,999,306,.98918583E-2,.1609513E-1,0
STARLINK-37957,2026-145J,2026-07-14T12:51:31.850784,15.75227361,.0001154,97.2839,42.3526,39.6354,320.4995,0,U,69685,999,307,.87406669E-3,.132497E-2,0
STARLINK-37968,2026-145K,2026-07-14T12:42:53.591616,15.75284399,.00013412,97.2829,42.3606,107.0227,253.1186,0,U,69686,999,307,.13512529E-2,.207229E-2,0
STARLINK-37977,2026-145L,2026-07-14T12:41:52.539648,15.75293332,.00012943,97.2841,42.3623,116.5853,243.5545,0,U,69687,999,307,.14704816E-2,.226116E-2,0
STARLINK-37908,2026-145M,2026-07-14T12:38:49.700832,15.75253675,.00014984,97.2844,42.3659,92.2317,267.9120,0,U,69688,999,307,.82850929E-3,.125628E-2,0
STARLINK-37979,2026-145N,2026-07-14T12:38:19.064256,15.75295734,.00020701,97.2838,42.3658,121.5542,238.5926,0,U,69689,999,307,.14113956E-2,.216815E-2,0
STARLINK-37940,2026-145P,2026-07-14T12:36:47.782656,15.75261512,.00010355,97.2828,42.3672,68.2670,291.8706,0,U,69690,999,307,.11004381E-2,.167789E-2,0
STARLINK-37961,2026-145Q,2026-07-14T12:32:13.294176,15.75275616,.00008359,97.2838,42.3710,81.9161,278.2200,0,U,69691,999,307,.1347592E-2,.206573E-2,0
STARLINK-37787,2026-145R,2026-07-14T12:29:10.358592,15.75282746,.00013602,97.2826,42.3732,105.5090,254.6325,0,U,69692,999,307,.13414102E-2,.205666E-2,0
STARLINK-37962,2026-145S,2026-07-14T12:26:37.968000,15.75245270,.00011479,97.2835,42.3763,91.5434,268.5963,0,U,69693,999,307,.11463909E-2,.174823E-2,0
STARLINK-37953,2026-145T,2026-07-14T12:30:41.828544,15.75243504,.00011774,97.2832,42.3724,93.6617,266.4783,0,U,69694,999,307,.79257379E-3,.120039E-2,0
STARLINK-37926,2026-145U,2026-07-14T12:29:40.769664,15.75249030,.0002086,97.2811,42.3719,97.1417,263.0086,0,U,69695,999,307,.62651531E-3,.94607E-3,0
STARLINK-37959,2026-145V,2026-07-14T12:28:09.412032,15.75223688,.00011842,97.2832,42.3739,118.2894,241.8491,0,U,69696,999,307,.83626963E-3,.126655E-2,0
STARLINK-37976,2026-145W,2026-07-14T13:55:34.425120,15.75224321,.00013769,97.2841,42.4451,85.4088,274.7335,0,U,69697,999,308,.89605091E-3,.13587E-2,0
STARLINK-37912,2026-145X,2026-07-14T12:22:34.002912,15.75243072,.00012731,97.2836,42.3805,90.4264,269.7147,0,U,69698,999,307,.95980851E-3,.145836E-2,0
STARLINK-37974,2026-145Y,2026-07-14T13:53:02.031072,15.75207413,.00010798,97.2845,42.4478,77.7143,282.4243,0,U,69699,999,308,.52965198E-3,.7967E-3,0
STARLINK-37955,2026-145Z,2026-07-14T13:49:28.630848,15.75187878,.00014607,97.2839,42.4513,92.5495,267.5937,0,U,69700,999,308,.18398838E-3,.27399E-3,0
STRIX-8,2026-146A,2026-07-14T13:19:11.034912,15.04430735,.00072259,41.9903,16.6392,18.0327,342.0755,0,U,69701,999,268,.17667928E-3,.2321E-4,0
STARLINK-38055,2026-147A,2026-07-14T14:23:18.768192,15.80814634,.00038579,97.2848,231.9531,88.5536,271.6174,0,U,69704,999,376,.53079438E-3,.102767E-2,0
STARLINK-37898,2026-147B,2026-07-14T14:22:07.426848,15.80826366,.00035647,97.2853,231.9548,71.9575,288.2082,0,U,69705,999,376,.55487396E-3,.107545E-2,0
STARLINK-37970,2026-147C,2026-07-14T14:21:02.500704,15.80829580,.00030653,97.2847,231.9557,85.6787,274.4832,0,U,69706,999,376,.58697962E-3,.113864E-2,0
